[{"OBJECT_NAME":"STARLINK-5446","OBJECT_ID":"2022-175AH","EPOCH":"2026-03-09T05:46:11.315136","MEAN_MOTION":15.08828996,"ECCENTRICITY":0.0001598,"INCLINATION":53.2197,"RA_OF_ASC_NODE":15.9031,"ARG_OF_PERICENTER":104.6325,"MEAN_ANOMALY":255.4845,"EPHEMERIS_TYPE":0,"CLASSIFICATION_TYPE":"U","NORAD_CAT_ID":54789,"ELEMENT_SET_NO":999,"REV_AT_EPOCH":18027,"BSTAR":-8.1088323e-5,"MEAN_MOTION_DOT":-1.578e-5,"MEAN_MOTION_DDOT":0},{"OBJECT_NAME":"CZ-4C R\/B","OBJECT_ID":"2022-106B","EPOCH":"2026-03-09T16:53:51.363744","MEAN_MOTION":15.02433181,"ECCENTRICITY":0.01103472,"INCLINATION":98.0511,"RA_OF_ASC_NODE":147.9459,"ARG_OF_PERICENTER":124.4586,"MEAN_ANOMALY":236.7124,"EPHEMERIS_TYPE":0,"CLASSIFICATION_TYPE":"U","NORAD_CAT_ID":53699,"ELEMENT_SET_NO":999,"REV_AT_EPOCH":19198,"BSTAR":0.00037068081,"MEAN_MOTION_DOT":5.536e-5,"MEAN_MOTION_DDOT":0}]
